GSAT0225 (GALILEO 29)   
1 59598U 24079A   26189.15234964 -.00000009  00000+0  00000+0 0  9996
2 59598  55.1311 100.4949 0000742 314.4110 178.0638  1.70473782 13677
GSAT0227 (GALILEO 30)   
1 59600U 24079C   26187.94680255 -.00000003  00000+0  00000+0 0  9997
2 59600  55.1260 100.5264 0002634  63.1115 296.9336  1.70473885 13703
GSAT0232 (GALILEO 32)   
1 61182U 24167A   26188.16182551  .00000080  00000+0  00000+0 0  9998
2 61182  55.1811 220.7661 0006485 230.3460 117.2781  1.70474080 11219
GSAT0226 (GALILEO 31)   
1 61183U 24167B   26189.20840462  .00000084  00000+0  00000+0 0  9991
2 61183  55.1792 220.7442 0003149 233.8539 127.4158  1.70473990 11214
BEIDOU-3 M25            
1 61186U 24168B   26188.36676912 -.00000064  00000+0  00000+0 0  9997
2 61186  54.4544 301.5420 0003280 293.0034  94.3413  1.86230030 12166
BEIDOU-3 M27            
1 61187U 24168C   26189.20422356 -.00000065  00000+0  00000+0 0  9994
2 61187  54.4490 301.4955 0001024  48.2766 315.5704  1.86230044  9651
NAVSTAR 83 (USA 440)    
1 62339U 24242A   26180.81572751 -.00000094  00000+0  00000+0 0  9992
2 62339  54.8437 333.6698 0017626   4.4449   3.3802  2.00572141 11517
QZS-6 (MICHIBIKI-6)     
1 62876U 25023A   26189.08972889 -.00000218  00000+0  00000+0 0  9998
2 62876   0.0303 299.0184 0001891 186.9929 282.8503  1.00269330  5156
COSMOS 2584 [GLONASS-K2]
1 63130U 25042A   26185.50280755 -.00000010  00000+0  00000+0 0  9990
2 63130  65.0947  72.2135 0006059 222.1818 137.8396  2.13103855 10411
NAVSTAR 84 (USA 545)    
1 64202U 25116A   26188.28169900 -.00000056  00000+0  00000+0 0  9999
2 64202  55.2499  30.3230 0008349 339.7972 202.1311  2.00574400  8274
COSMOS 2596 [GLONASS-K1]
1 65590U 25206B   26188.60403351 -.00000051  00000+0  00000+0 0  9992
2 65590  64.6217 314.2756 0011132 308.3716  26.9282  2.13100766  6345
GSAT0233 (GALILEO 33)   
1 67160U 25302A   26188.14322388 -.00000003  00000+0  00000+0 0  9990
2 67160  54.3464 101.5632 0000868 177.6820 346.3686  1.70473948  3461
GSAT0234 (GALILEO 34)   
1 67162U 25302C   26188.46854740 -.00000004  00000+0  00000+0 0  9990
2 67162  54.3483 101.5529 0002161 322.9708 220.8395  1.70474014  3522
NAVSTAR 85 (USA 581)    
1 67588U 26017A   26188.13978976 -.00000020  00000+0  00000+0 0  9996
2 67588  55.1006  87.9545 0021626 259.5022 100.2924  2.00570703432015
NAVSTAR 86 (USA 585)    
1 68791U 26087A   26188.85388274  .00000108  00000+0  00000+0 0  9991
2 68791  54.9624 206.9706 0020549 106.6988 254.3727  2.00571955  1253
